TISAT 1                 
1 36799U 10035E   26068.75703562  .00024554  00000+0  91005-3 0  9997
2 36799  98.0645   6.8512 0001343 159.3030 200.8262 15.27628633852505
STARLINK-35969          
1 66523U 25265H   26068.94801688  .00023981  00000+0  87780-3 0  9993
2 66523  42.9962 276.4153 0000409  51.3736 308.7153 15.27593168 17150
