[{"OBJECT_NAME":"TISAT 1","OBJECT_ID":"2010-035E","EPOCH":"2026-03-09T18:10:07.877568","MEAN_MOTION":15.27628633,"ECCENTRICITY":0.00013432,"INCLINATION":98.0645,"RA_OF_ASC_NODE":6.8512,"ARG_OF_PERICENTER":159.303,"MEAN_ANOMALY":200.8262,"EPHEMERIS_TYPE":0,"CLASSIFICATION_TYPE":"U","NORAD_CAT_ID":36799,"ELEMENT_SET_NO":999,"REV_AT_EPOCH":85250,"BSTAR":0.00091004793,"MEAN_MOTION_DOT":0.00024554,"MEAN_MOTION_DDOT":0},{"OBJECT_NAME":"STARLINK-35969","OBJECT_ID":"2025-265H","EPOCH":"2026-03-09T22:45:08.658432","MEAN_MOTION":15.27593168,"ECCENTRICITY":4.093e-5,"INCLINATION":42.9962,"RA_OF_ASC_NODE":276.4153,"ARG_OF_PERICENTER":51.3736,"MEAN_ANOMALY":308.7153,"EPHEMERIS_TYPE":0,"CLASSIFICATION_TYPE":"U","NORAD_CAT_ID":66523,"ELEMENT_SET_NO":999,"REV_AT_EPOCH":1715,"BSTAR":0.00087780264,"MEAN_MOTION_DOT":0.00023981,"MEAN_MOTION_DDOT":0}]
